#aV2012  8 18  0  0  0.00000000     288 DD+AD WGS84 FIT  NGA
## 1701 518400.00000000   300.00000000 56157 0.0000000000000
+   31     1  2  3  4  5  6  7  8  9 10 11 12 13 14 15 16 17
+         18 19 20 21 22 23 25 26 27 28 29 30 31 32  0  0  0
+          0  0  0  0  0  0  0  0  0  0  0  0  0  0  0  0  0
+          0  0  0  0  0  0  0  0  0  0  0  0  0  0  0  0  0
+          0  0  0  0  0  0  0  0  0  0  0  0  0  0  0  0  0
++         2  2  2  2  2  2  2  2  2  2  2  2  2  2  2  2  2
++         2  2  2  2  2  2  2  2  2  2  2  2  2  2  2  0  0
++         0  0  0  0  0  0  0  0  0  0  0  0  0  0  0  0  0
++         0  0  0  0  0  0  0  0  0  0  0  0  0  0  0  0  0
++         0  0  0  0  0  0  0  0  0  0  0  0  0  0  0  0  0
%c cc cc ccc ccc cccc cccc cccc cccc ccccc ccccc ccccc ccccc
%c cc cc ccc ccc cccc cccc cccc cccc ccccc ccccc ccccc ccccc
%f  0.0000000  0.000000000  0.00000000000  0.000000000000000
%f  0.0000000  0.000000000  0.00000000000  0.000000000000000
%i    0    0    0    0      0      0      0      0         0
%i    0    0    0    0      0      0      0      0         0
/*      NGA, ST. LOUIS,MO.                                  
/*   EPHEMERIS COMPUTED FROM  1 DAYS OF DATA
/*   EPOCHA SMOOTHER  
/* CCCCCCCCCCCCCCCCCCCCCCCCCCCCCCCCCCCCCCCCCCCCCCCCCCCCCCCCC
*  2012  8 18  9 20  0.00000000                                                 
P  1 -17436.324311  -4580.180984  19509.676309    270.082777                    
V  1  -9792.036641 -22800.083806 -14047.754149      0.015110                    
P  2  13882.409747  22781.056783  -2782.393264    400.226759                    
V  2  -1057.848684   4649.975111  30676.974337      0.011367                    
P  3 -18139.775046 -11129.234814 -16538.708806     89.767924                    
V  3  19906.422821  -3392.333733 -19890.507415      0.049896                    
P  4   4338.604237  24269.790738   9200.631387    277.733603                    
V  4  -8488.012592  -9411.715258  28354.740884      0.113753                    
P  5   8831.377910  13713.618930 -20956.976465   -344.581639                    
V  5 -15572.358267  21622.688614   7723.459061     -0.032093                    
P  6 -13546.679713 -13613.310261 -18367.012776    -11.357435                    
V  6  23525.007501  -1364.873391 -15928.276397     -0.072270                    
P  7 -11492.129933  10048.894331 -21678.933799    112.169936                    
V  7 -12113.258175 -24778.247465  -5329.063412      0.040408                    
P  8  -2994.764210  20965.634486 -15560.522970      2.023489                    
V  8  -8363.976489 -18312.015961 -23519.726710      0.000261                    
P  9  17408.050909   9714.212737  16966.640727    179.482830                    
V  9   8726.373864  20901.559410 -20326.786261      0.026087                    
P 10  -6330.101112  23111.084385 -11264.886263    -48.600416                    
V 10 -10634.689604   9749.503813  26985.332253     -0.013648                    
P 11 -21591.618322  -8571.766762  12740.723237   -293.400510                    
V 11  -8426.724728 -15156.285071 -23420.690542     -0.039162                    
P 12  18277.528488  -3943.986249  18768.445877     86.064936                    
V 12 -12867.174835  20163.545067  16936.231819      0.020644                    
P 13 -21252.629195   6410.841079 -14803.489352    187.195294                    
V 13 -17981.644805  -4435.542252  24008.464395     -0.025005                    
P 14   4963.284954 -14287.964448  22009.816235    210.333747                    
V 14  27151.418323   4087.368912  -3647.763085      0.010739                    
P 15  25945.012669   4408.582661  -4376.621581    -93.906007                    
V 15  -5669.981640   2818.552057 -30594.798002     -0.005438                    
P 16  -7774.257322 -13567.394253 -21423.649703   -243.993635                    
V 16  16739.402609 -21434.753087   7806.534164     -0.009075                    
P 17  -5307.606718  14590.318520  21708.110673    104.083856                    
V 17 -26943.241582  -3400.311084  -4571.859527     -0.032059                    
P 18  16830.849540 -19925.001520  -3474.558100    210.651976                    
V 18    614.193210   6408.738958 -30834.380771      0.018205                    
P 19 -24773.689355  -8250.349135  -5979.470928   -295.434780                    
V 19   7711.222368  -1143.526411 -30297.487950     -0.035649                    
P 20 -19160.594756   7767.185118  16478.040495     66.472899                    
V 20   8997.741215 -19516.206033  19544.340055      0.006907                    
P 21  10019.552701 -13423.278954 -19985.843164   -243.933776                    
V 21  12948.159547  23466.504196  -9607.700545     -0.024497                    
P 22   7678.037763 -23605.886694   9457.494842    146.686445                    
V 22   9661.693264  -7725.945128 -27813.661875      0.004938                    
P 23 -26537.702038    193.929733  -3473.561501    173.860945                    
V 23  -4196.319438  -2876.293062  31063.903337     -0.039130                    
P 25  18622.337016 -16330.041538   9464.092688     40.060121                    
V 25  -4712.724427  11375.599683  28834.246543      0.010663                    
P 26  18228.359456  13114.575712 -15080.480151   -310.928970                    
V 26 -17838.725020  -1687.471256 -23683.297297      0.124938                    
P 27  18324.346814  13360.870852  14847.546335    421.447145                    
V 27   7292.427691  16013.355424 -23903.790163      0.041582                    
P 28 -10877.323427  23025.657655   7689.128132    176.394983                    
V 28  -7165.917457   5934.482092 -30302.978703      0.038083                    
P 29  23788.033302  -4706.648485 -10730.125700    345.541741                    
V 29  13342.748608   3988.620134  27733.686421      0.041982                    
P 30  -1092.981453 -21490.913585 -15942.227110   -370.682006                    
V 30  10891.459115 -16372.009045  21810.163169     -0.248314                    
P 31  -5737.231365 -24685.355075   7702.283217    268.340420                    
V 31   6007.130330   7764.152511  30328.781238      0.026674                    
P 32 -16506.024534  -3088.993775  20666.178127   -477.927880                    
V 32  15457.673798 -20876.382800   9799.452334     -0.043109                    
EOF
